#aV2007 12 25  0  0   .00000000      96 DD+AD WGS84 FIT  NGA
## 1459 172800.00000000   900.00000000 54459  .0000000000000
+   31     1  2  3  4  5  6  7  8  9 10 11 12 13 14 15 16 17
+         18 19 20 21 22 23 24 25 26 27 28 30 31 32  0  0  0
+          0  0  0  0  0  0  0  0  0  0  0  0  0  0  0  0  0
+          0  0  0  0  0  0  0  0  0  0  0  0  0  0  0  0  0
+          0  0  0  0  0  0  0  0  0  0  0  0  0  0  0  0  0
++         0  0  0  0  0  0  0  0  0  0  0  0  0  0  0  0  0
++         0  0  0  0  0  0  0  0  0  0  0  0  0  0  0  0  0
++         0  0  0  0  0  0  0  0  0  0  0  0  0  0  0  0  0
++         0  0  0  0  0  0  0  0  0  0  0  0  0  0  0  0  0
++         0  0  0  0  0  0  0  0  0  0  0  0  0  0  0  0  0
%c cc cc ccc ccc cccc cccc cccc cccc ccccc ccccc ccccc ccccc
%c cc cc ccc ccc cccc cccc cccc cccc ccccc ccccc ccccc ccccc
%f  0.0000000  0.000000000  0.00000000000  0.000000000000000
%f  0.0000000  0.000000000  0.00000000000  0.000000000000000
%i    0    0    0    0      0      0      0      0         0
%i    0    0    0    0      0      0      0      0         0
/*      NGA, ST. LOUIS,MO.                                  
/*   EPHEMERIS COMPUTED FROM  3 DAYS OF DATA                
/* CCCCCCCCCCCCCCCCCCCCCCCCCCCCCCCCCCCCCCCCCCCCCCCCCCCCCCCCC
/* CCCCCCCCCCCCCCCCCCCCCCCCCCCCCCCCCCCCCCCCCCCCCCCCCCCCCCCCC
*  2007 12 25  0 15   .00000000                                                 
P  1 -14484.685394   -139.104228 -22042.268610    174.645270                    
V  1  -1886.717715 -28381.388708   1333.374096       .022947                    
P  2  22937.640275 -11035.466383  -7165.506069    160.944122                    
V  2  -5061.352007   8123.078181 -29793.647694       .029279                    
P  3 -12969.118235  11040.385290  20060.705078    163.032487                    
V  3  -7219.931579 -25265.243732   9471.369321       .054099                    
P  4  21242.732770  -1048.678217 -16219.539094    -41.602410                    
V  4 -15218.579966  13631.254590 -20560.792860      -.053211                    
P  5  -4853.460952 -16969.918671 -20148.361907    613.894862                    
V  5  24178.175097   6603.572678 -11396.549023       .191426                    
P  6  -7426.297902 -25131.589270   4419.607778    178.401728                    
V  6   2699.704409  -5934.315158 -30465.207345      -.133585                    
P  7 -10318.789916 -23274.015882   7856.376193     -3.753188                    
V  7   1509.869226 -10037.473100 -29008.424543       .371197                    
P  8  15775.548462   5909.840661  20559.091074   -134.595490                    
V  8 -21310.180429  15143.157689  11492.166329      -.014640                    
P  9  11205.188141 -20576.508021 -12949.543544    102.534275                    
V  9  13311.625255  -8219.907191  25988.869039       .017231                    
P 10  19449.509695  -4495.597216  17560.750389   -184.352307                    
V 10  19814.244795  10544.717491 -18789.046404      -.121924                    
P 11  -6911.011092  22338.635870 -12441.539232     26.739527                    
V 11 -13818.547140   8895.818787  24243.197463       .001545                    
P 12   1534.398044 -15527.493716 -21412.740925   -352.364117                    
V 12  25385.502818  10278.515474  -5541.152590      -.010775                    
P 13   6354.181529  24898.466826   6674.265645    230.013695                    
V 13   -948.165755   8682.350264 -30980.577967       .023533                    
P 14 -13756.671793 -12372.734261 -18989.514446   -310.693075                    
V 14  -1380.222942 -24208.315902  16591.487976       .027905                    
P 15   7567.763103 -20891.605945  14591.601691    -70.782960                    
V 15   4587.554836  18031.077205  23466.207939       .003550                    
P 16 -22405.567800   1001.149274  14434.468831    129.975521                    
V 16 -15804.156342  -9076.092641 -23854.433984       .011516                    
P 17  14298.182183  13182.214022 -18137.028754     45.838772                    
V 17   1091.210814  23042.711625  17443.994198      -.008117                    
P 18 -16091.321837 -17414.170404  12483.956054   -217.036818                    
V 18  14979.117307   4516.247765  25616.016278       .026067                    
P 19  -8944.239771  20504.613665  14277.562739     13.633972                    
V 19  -3297.619266 -17906.775726  23945.199905       .017449                    
P 20   1556.717363  16650.595728 -20750.317522    123.875758                    
V 20 -24543.622179  -9022.388927  -9081.809682      -.007101                    
P 21  -7792.990039 -13779.803477  21451.098767     74.746541                    
V 21  22299.686535 -15240.786492  -2294.326765      -.006005                    
P 22 -23936.506300 -11559.361080    144.049918    205.731569                    
V 22   1371.697717  -2884.499799  31443.017616       .008138                    
P 23  -1140.786773  25697.716715  -6166.809140    320.729573                    
V 23  -3494.765932  -7424.650824 -30830.779363       .031436                    
P 24   5902.231734 -19165.005962  17737.774505     56.730356                    
V 24  19155.359563 -11088.878169 -18254.948956       .033358                    
P 25   1634.357826  17597.452337  20240.999344    494.274332                    
V 25 -18964.449413  16076.119640 -12521.100833       .036983                    
P 26   9336.957672 -17894.674460  16498.321162    135.725490                    
V 26   3434.035136  21782.332140  21635.398035       .111792                    
P 27   7884.945661  13385.571553  22197.417595    156.362825                    
V 27 -20429.326766  17036.149195  -3297.631501       .024100                    
P 28  23121.008516  13104.741170   3405.443379    -12.603477                    
V 28  -4489.702947    589.104876  31191.860003      -.006107                    
P 30 -11091.145132 -17370.509958 -17140.974216     57.372900                    
V 30  20409.627780   5769.976519 -19333.916737       .014509                    
P 31 -21733.061963   3803.760987 -14639.144417     -2.704257                    
V 31  13856.616765 -13016.476670 -23538.171625      -.015614                    
P 32 -24144.413792  -6125.258705  -8517.469749    181.823930                    
V 32  -9005.491051  -7572.790141  29545.415284       .115558                    
EOF
